{
  "type": "FeatureCollection",
  "features": [
    {
      "type": "Feature",
      "properties": {
        "norad_id": 31087,
        "name": "FENGYUN 1C DEB",
        "group": "fengyun-1c-debris",
        "lat": -18.092887083447064,
        "lon": 174.41770254856021,
        "alt_km": 766.6920238313896,
        "timestamp": "2025-12-02T10:50:47.554531+00:00",
        "meta_object_name": "FENGYUN 1C DEB",
        "meta_object_id": "1999-025BGH",
        "meta_epoch": "2025-12-01T13:15:15.731424",
        "meta_mean_motion": 14.60131159,
        "meta_eccentricity": 0.01727426,
        "meta_inclination": 98.104,
        "meta_ra_of_asc_node": 356.2059,
        "meta_arg_of_pericenter": 326.1596,
        "meta_mean_anomaly": 187.3241,
        "meta_ephemeris_type": 0,
        "meta_classification_type": "U",
        "meta_norad_cat_id": 31087,
        "meta_element_set_no": 999,
        "meta_rev_at_epoch": 98606,
        "meta_bstar": 0.00088421007,
        "meta_mean_motion_dot": 5.196e-05,
        "meta_mean_motion_ddot": 0,
        "tle_line1": "1 31087U 99025BGH 25335.55226541  .00005196  00000+0  88421-3 0  9998",
        "tle_line2": "2 31087  98.1040 356.2059 0172742 326.1596 187.3241 14.60131159986064"
      },
      "geometry": {
        "type": "Point",
        "coordinates": [
          174.41770254856021,
          -18.092887083447064
        ]
      }
    },
    {
      "type": "Feature",
      "properties": {
        "norad_id": 31088,
        "name": "FENGYUN 1C DEB",
        "group": "fengyun-1c-debris",
        "lat": -11.47130335906272,
        "lon": -146.09726876814346,
        "alt_km": 804.5004718744785,
        "timestamp": "2025-12-02T10:50:47.554542+00:00",
        "meta_object_name": "FENGYUN 1C DEB",
        "meta_object_id": "1999-025BGJ",
        "meta_epoch": "2025-12-02T03:21:55.314720",
        "meta_mean_motion": 14.28560848,
        "meta_eccentricity": 0.0029313,
        "meta_inclination": 99.4135,
        "meta_ra_of_asc_node": 35.496,
        "meta_arg_of_pericenter": 92.1193,
        "meta_mean_anomaly": 296.8542,
        "meta_ephemeris_type": 0,
        "meta_classification_type": "U",
        "meta_norad_cat_id": 31088,
        "meta_element_set_no": 999,
        "meta_rev_at_epoch": 96398,
        "meta_bstar": 0.0019068,
        "meta_mean_motion_dot": 4.757e-05,
        "meta_mean_motion_ddot": 0,
        "tle_line1": "1 31088U 99025BGJ 25336.14022355  .00004757  00000+0  19068-2 0  9994",
        "tle_line2": "2 31088  99.4135  35.4960 0029313  92.1193 296.8542 14.28560848963980"
      },
      "geometry": {
        "type": "Point",
        "coordinates": [
          -146.09726876814346,
          -11.47130335906272
        ]
      }
    },
    {
      "type": "Feature",
      "properties": {
        "norad_id": 31089,
        "name": "FENGYUN 1C DEB",
        "group": "fengyun-1c-debris",
        "lat": -18.986619557451803,
        "lon": 122.02332849504,
        "alt_km": 966.2198177805822,
        "timestamp": "2025-12-02T10:50:47.554552+00:00",
        "meta_object_name": "FENGYUN 1C DEB",
        "meta_object_id": "1999-025BGK",
        "meta_epoch": "2025-12-01T09:07:49.380096",
        "meta_mean_motion": 13.88281458,
        "meta_eccentricity": 0.02056627,
        "meta_inclination": 98.9488,
        "meta_ra_of_asc_node": 117.8872,
        "meta_arg_of_pericenter": 242.4516,
        "meta_mean_anomaly": 143.828,
        "meta_ephemeris_type": 0,
        "meta_classification_type": "U",
        "meta_norad_cat_id": 31089,
        "meta_element_set_no": 999,
        "meta_rev_at_epoch": 67902,
        "meta_bstar": 0.00085311791,
        "meta_mean_motion_dot": 1.165e-05,
        "meta_mean_motion_ddot": 0,
        "tle_line1": "1 31089U 99025BGK 25335.38043264  .00001165  00000+0  85312-3 0  9998",
        "tle_line2": "2 31089  98.9488 117.8872 0205662 242.4516 143.8280 13.88281458679026"
      },
      "geometry": {
        "type": "Point",
        "coordinates": [
          122.02332849504,
          -18.986619557451803
        ]
      }
    },
    {
      "type": "Feature",
      "properties": {
        "norad_id": 31090,
        "name": "FENGYUN 1C DEB",
        "group": "fengyun-1c-debris",
        "lat": 59.11425538026846,
        "lon": -86.35600190639778,
        "alt_km": 438.9690405012607,
        "timestamp": "2025-12-02T10:50:47.554562+00:00",
        "meta_object_name": "FENGYUN 1C DEB",
        "meta_object_id": "1999-025BGL",
        "meta_epoch": "2025-12-01T06:05:56.425056",
        "meta_mean_motion": 15.31411264,
        "meta_eccentricity": 0.0058572,
        "meta_inclination": 98.9852,
        "meta_ra_of_asc_node": 76.8547,
        "meta_arg_of_pericenter": 172.6305,
        "meta_mean_anomaly": 187.5806,
        "meta_ephemeris_type": 0,
        "meta_classification_type": "U",
        "meta_norad_cat_id": 31090,
        "meta_element_set_no": 999,
        "meta_rev_at_epoch": 662,
        "meta_bstar": 0.0020913,
        "meta_mean_motion_dot": 0.00067329,
        "meta_mean_motion_ddot": 0,
        "tle_line1": "1 31090U 99025BGL 25335.25412529  .00067329  00000+0  20913-2 0  9999",
        "tle_line2": "2 31090  98.9852  76.8547 0058572 172.6305 187.5806 15.31411264  6621"
      },
      "geometry": {
        "type": "Point",
        "coordinates": [
          -86.35600190639778,
          59.11425538026846
        ]
      }
    },
    {
      "type": "Feature",
      "properties": {
        "norad_id": 31091,
        "name": "FENGYUN 1C DEB",
        "group": "fengyun-1c-debris",
        "lat": 49.888735736665396,
        "lon": -56.93724717251299,
        "alt_km": 926.4861922051632,
        "timestamp": "2025-12-02T10:50:47.554571+00:00",
        "meta_object_name": "FENGYUN 1C DEB",
        "meta_object_id": "1999-025BGM",
        "meta_epoch": "2025-12-01T16:52:34.401216",
        "meta_mean_motion": 13.54120325,
        "meta_eccentricity": 0.0291101,
        "meta_inclination": 99.2236,
        "meta_ra_of_asc_node": 313.4843,
        "meta_arg_of_pericenter": 356.9866,
        "meta_mean_anomaly": 2.9511,
        "meta_ephemeris_type": 0,
        "meta_classification_type": "U",
        "meta_norad_cat_id": 31091,
        "meta_element_set_no": 999,
        "meta_rev_at_epoch": 61490,
        "meta_bstar": 0.001065,
        "meta_mean_motion_dot": 9.06e-06,
        "meta_mean_motion_ddot": 0,
        "tle_line1": "1 31091U 99025BGM 25335.70317594  .00000906  00000+0  10650-2 0  9991",
        "tle_line2": "2 31091  99.2236 313.4843 0291101 356.9866   2.9511 13.54120325614904"
      },
      "geometry": {
        "type": "Point",
        "coordinates": [
          -56.93724717251299,
          49.888735736665396
        ]
      }
    },
    {
      "type": "Feature",
      "properties": {
        "norad_id": 31092,
        "name": "FENGYUN 1C DEB",
        "group": "fengyun-1c-debris",
        "lat": -25.648764556072305,
        "lon": 97.29225477148212,
        "alt_km": 1332.5600188535527,
        "timestamp": "2025-12-02T10:50:47.554582+00:00",
        "meta_object_name": "FENGYUN 1C DEB",
        "meta_object_id": "1999-025BGN",
        "meta_epoch": "2025-11-15T07:00:52.552224",
        "meta_mean_motion": 13.46401433,
        "meta_eccentricity": 0.03278725,
        "meta_inclination": 99.7115,
        "meta_ra_of_asc_node": 75.9227,
        "meta_arg_of_pericenter": 204.4209,
        "meta_mean_anomaly": 154.1084,
        "meta_ephemeris_type": 0,
        "meta_classification_type": "U",
        "meta_norad_cat_id": 31092,
        "meta_element_set_no": 999,
        "meta_rev_at_epoch": 91512,
        "meta_bstar": 0.0042000132,
        "meta_mean_motion_dot": 3.457e-05,
        "meta_mean_motion_ddot": 0,
        "tle_line1": "1 31092U 99025BGN 25319.29227491  .00003457  00000+0  42000-2 0  9992",
        "tle_line2": "2 31092  99.7115  75.9227 0327872 204.4209 154.1084 13.46401433915121"
      },
      "geometry": {
        "type": "Point",
        "coordinates": [
          97.29225477148212,
          -25.648764556072305
        ]
      }
    },
    {
      "type": "Feature",
      "properties": {
        "norad_id": 31093,
        "name": "FENGYUN 1C DEB",
        "group": "fengyun-1c-debris",
        "lat": -49.62488731716765,
        "lon": -173.3860827286921,
        "alt_km": 886.4691125840245,
        "timestamp": "2025-12-02T10:50:47.554592+00:00",
        "meta_object_name": "FENGYUN 1C DEB",
        "meta_object_id": "1999-025BGP",
        "meta_epoch": "2025-12-02T00:39:11.152224",
        "meta_mean_motion": 13.80613444,
        "meta_eccentricity": 0.0208177,
        "meta_inclination": 98.5951,
        "meta_ra_of_asc_node": 175.9819,
        "meta_arg_of_pericenter": 252.3007,
        "meta_mean_anomaly": 105.5326,
        "meta_ephemeris_type": 0,
        "meta_classification_type": "U",
        "meta_norad_cat_id": 31093,
        "meta_element_set_no": 999,
        "meta_rev_at_epoch": 94359,
        "meta_bstar": 0.00050561,
        "meta_mean_motion_dot": 5.85e-06,
        "meta_mean_motion_ddot": 0,
        "tle_line1": "1 31093U 99025BGP 25336.02721241  .00000585  00000+0  50561-3 0  9996",
        "tle_line2": "2 31093  98.5951 175.9819 0208177 252.3007 105.5326 13.80613444943595"
      },
      "geometry": {
        "type": "Point",
        "coordinates": [
          -173.3860827286921,
          -49.62488731716765
        ]
      }
    }
  ]
}